MAKERSAT 0              
1 43016U 17073D   26068.63673096  .00023659  00000+0  71590-3 0  9993
2 43016  97.4777 310.6155 0115258 266.0743  92.7313 15.27797199451246
STARLINK-3290           
1 50828U 22001AB  26068.54543105 -.00000355  00000+0 -41869-5 0  9994
2 50828  53.2186 169.6628 0001284  77.7171 282.3965 15.08839033230238
